STARLINK-35473          
1 65937U 25225AD  25300.47993222  .00104743  00000+0  71077-3 0  9997
2 65937  53.1596  67.9486 0001355  62.0794 298.0363 15.74183410  3078
2025-226A               
1 65938U 25226A   25300.49275461  .00011032  00000+0  64901-3 0  9995
2 65938  97.6664  14.6707 0014494 224.8266 135.1794 15.11738865  2487
2025-226B               
1 65939U 25226B   25300.50962946  .00006535  00000+0  40824-3 0  9999
2 65939  97.6619  14.6404 0020565 228.3219 131.6250 15.09636478  2476
2025-226C               
1 65940U 25226C   25300.49396361  .00010898  00000+0  64319-3 0  9993
2 65940  97.6573  14.6517 0014460 222.6942 137.3165 15.11626832  2473
YOTSUBA-KULOVER         
1 65941U 98067XN  25300.27430305  .00050396  00000+0  80727-3 0  9998
2 65941  51.6336  12.2607 0002448 315.8406  44.2388 15.52592485  2629
BOTAN                   
1 65942U 98067XP  25300.20651253  .00068238  00000+0  10633-2 0  9991
2 65942  51.6340  12.5584 0004340 338.3786  21.7021 15.53223057  2616
E-KAGAKU-1              
1 65943U 98067XQ  25299.43713291  .00049272  00000+0  79166-3 0  9999
2 65943  51.6337  16.4198 0004085 323.6954  36.3758 15.52513453  2493
2025-226D               
1 65944U 25226D   25290.94606692 -.00000071  00000+0  00000+0 0  9992
2 65944  97.6632   5.1263 0019022 287.2735  72.6416 15.16526485  1020
SHIYAN-31               
1 65945U 25227A   25300.48100975  .00009737  00000+0  44737-3 0  9994
2 65945  80.0035  83.3186 0011363 221.5510 138.4854 15.20231357  2145
CZ-2D R/B               
1 65946U 25227B   25300.48229711  .00011544  00000+0  42798-3 0  9999
2 65946  80.1543  83.5805 0021475 349.0807  10.9954 15.27295712  2159
KUIPER-00101            
1 65947U 25228A   25300.36430830  .00017652  00000+0  52856-3 0  9996
2 65947  51.8799 243.9741 0005843 182.5219 177.5738 15.34587086  3299
KUIPER-00113            
1 65948U 25228B   25300.49231052  .00022728  00000+0  67131-3 0  9998
2 65948  51.8802 243.3358 0006249 179.5221 180.5772 15.34846143  3310
