CCSDS_OMM_VERS = 2.0
CREATION_DATE  = 
ORIGINATOR     = 

OBJECT_NAME    = STARLINK-35473
OBJECT_ID      = 2025-225AD
CENTER_NAME    = EARTH
REF_FRAME      = TEME
TIME_SYSTEM    = UTC
MEAN_ELEMENT_THEORY = SGP/SGP4

EPOCH          = 2025-10-27T11:31:06.143808
MEAN_MOTION    = 15.74183410
ECCENTRICITY   = .0001355
INCLINATION    = 53.1596
RA_OF_ASC_NODE = 67.9486
ARG_OF_PERICENTER = 62.0794
MEAN_ANOMALY   = 298.0363

EPHEMERIS_TYPE = 0
CLASSIFICATION_TYPE = U
NORAD_CAT_ID   = 65937
ELEMENT_SET_NO = 999
REV_AT_EPOCH   = 307
BSTAR          = .71077E-3
MEAN_MOTION_DOT = .104743E-2
MEAN_MOTION_DDOT = 0

CCSDS_OMM_VERS = 2.0
CREATION_DATE  = 
ORIGINATOR     = 

OBJECT_NAME    = 2025-226A
OBJECT_ID      = 2025-226A
CENTER_NAME    = EARTH
REF_FRAME      = TEME
TIME_SYSTEM    = UTC
MEAN_ELEMENT_THEORY = SGP/SGP4

EPOCH          = 2025-10-27T11:49:33.998304
MEAN_MOTION    = 15.11738865
ECCENTRICITY   = .0014494
INCLINATION    = 97.6664
RA_OF_ASC_NODE = 14.6707
ARG_OF_PERICENTER = 224.8266
MEAN_ANOMALY   = 135.1794

EPHEMERIS_TYPE = 0
CLASSIFICATION_TYPE = U
NORAD_CAT_ID   = 65938
ELEMENT_SET_NO = 999
REV_AT_EPOCH   = 248
BSTAR          = .64901E-3
MEAN_MOTION_DOT = .11032E-3
MEAN_MOTION_DDOT = 0

CCSDS_OMM_VERS = 2.0
CREATION_DATE  = 
ORIGINATOR     = 

OBJECT_NAME    = 2025-226B
OBJECT_ID      = 2025-226B
CENTER_NAME    = EARTH
REF_FRAME      = TEME
TIME_SYSTEM    = UTC
MEAN_ELEMENT_THEORY = SGP/SGP4

EPOCH          = 2025-10-27T12:13:51.985344
MEAN_MOTION    = 15.09636478
ECCENTRICITY   = .0020565
INCLINATION    = 97.6619
RA_OF_ASC_NODE = 14.6404
ARG_OF_PERICENTER = 228.3219
MEAN_ANOMALY   = 131.6250

EPHEMERIS_TYPE = 0
CLASSIFICATION_TYPE = U
NORAD_CAT_ID   = 65939
ELEMENT_SET_NO = 999
REV_AT_EPOCH   = 247
BSTAR          = .40824E-3
MEAN_MOTION_DOT = .6535E-4
MEAN_MOTION_DDOT = 0

CCSDS_OMM_VERS = 2.0
CREATION_DATE  = 
ORIGINATOR     = 

OBJECT_NAME    = 2025-226C
OBJECT_ID      = 2025-226C
CENTER_NAME    = EARTH
REF_FRAME      = TEME
TIME_SYSTEM    = UTC
MEAN_ELEMENT_THEORY = SGP/SGP4

EPOCH          = 2025-10-27T11:51:18.455904
MEAN_MOTION    = 15.11626832
ECCENTRICITY   = .001446
INCLINATION    = 97.6573
RA_OF_ASC_NODE = 14.6517
ARG_OF_PERICENTER = 222.6942
MEAN_ANOMALY   = 137.3165

EPHEMERIS_TYPE = 0
CLASSIFICATION_TYPE = U
NORAD_CAT_ID   = 65940
ELEMENT_SET_NO = 999
REV_AT_EPOCH   = 247
BSTAR          = .64319E-3
MEAN_MOTION_DOT = .10898E-3
MEAN_MOTION_DDOT = 0

CCSDS_OMM_VERS = 2.0
CREATION_DATE  = 
ORIGINATOR     = 

OBJECT_NAME    = YOTSUBA-KULOVER
OBJECT_ID      = 1998-067XN
CENTER_NAME    = EARTH
REF_FRAME      = TEME
TIME_SYSTEM    = UTC
MEAN_ELEMENT_THEORY = SGP/SGP4

EPOCH          = 2025-10-27T06:34:59.783520
MEAN_MOTION    = 15.52592485
ECCENTRICITY   = .00024488
INCLINATION    = 51.6336
RA_OF_ASC_NODE = 12.2607
ARG_OF_PERICENTER = 315.8406
MEAN_ANOMALY   = 44.2388

EPHEMERIS_TYPE = 0
CLASSIFICATION_TYPE = U
NORAD_CAT_ID   = 65941
ELEMENT_SET_NO = 999
REV_AT_EPOCH   = 262
BSTAR          = .8072716E-3
MEAN_MOTION_DOT = .50396E-3
MEAN_MOTION_DDOT = 0

CCSDS_OMM_VERS = 2.0
CREATION_DATE  = 
ORIGINATOR     = 

OBJECT_NAME    = BOTAN
OBJECT_ID      = 1998-067XP
CENTER_NAME    = EARTH
REF_FRAME      = TEME
TIME_SYSTEM    = UTC
MEAN_ELEMENT_THEORY = SGP/SGP4

EPOCH          = 2025-10-27T04:57:22.682592
MEAN_MOTION    = 15.53223057
ECCENTRICITY   = .00043408
INCLINATION    = 51.6340
RA_OF_ASC_NODE = 12.5584
ARG_OF_PERICENTER = 338.3786
MEAN_ANOMALY   = 21.7021

EPHEMERIS_TYPE = 0
CLASSIFICATION_TYPE = U
NORAD_CAT_ID   = 65942
ELEMENT_SET_NO = 999
REV_AT_EPOCH   = 261
BSTAR          = .10632931E-2
MEAN_MOTION_DOT = .68238E-3
MEAN_MOTION_DDOT = 0

CCSDS_OMM_VERS = 2.0
CREATION_DATE  = 
ORIGINATOR     = 

OBJECT_NAME    = E-KAGAKU-1
OBJECT_ID      = 1998-067XQ
CENTER_NAME    = EARTH
REF_FRAME      = TEME
TIME_SYSTEM    = UTC
MEAN_ELEMENT_THEORY = SGP/SGP4

EPOCH          = 2025-10-26T10:29:28.283424
MEAN_MOTION    = 15.52513453
ECCENTRICITY   = .00040855
INCLINATION    = 51.6337
RA_OF_ASC_NODE = 16.4198
ARG_OF_PERICENTER = 323.6954
MEAN_ANOMALY   = 36.3758

EPHEMERIS_TYPE = 0
CLASSIFICATION_TYPE = U
NORAD_CAT_ID   = 65943
ELEMENT_SET_NO = 999
REV_AT_EPOCH   = 249
BSTAR          = .79166282E-3
MEAN_MOTION_DOT = .49272E-3
MEAN_MOTION_DDOT = 0

CCSDS_OMM_VERS = 2.0
CREATION_DATE  = 
ORIGINATOR     = 

OBJECT_NAME    = 2025-226D
OBJECT_ID      = 2025-226D
CENTER_NAME    = EARTH
REF_FRAME      = TEME
TIME_SYSTEM    = UTC
MEAN_ELEMENT_THEORY = SGP/SGP4

EPOCH          = 2025-10-17T22:42:20.181888
MEAN_MOTION    = 15.16526485
ECCENTRICITY   = .0019022
INCLINATION    = 97.6632
RA_OF_ASC_NODE = 5.1263
ARG_OF_PERICENTER = 287.2735
MEAN_ANOMALY   = 72.6416

EPHEMERIS_TYPE = 0
CLASSIFICATION_TYPE = U
NORAD_CAT_ID   = 65944
ELEMENT_SET_NO = 999
REV_AT_EPOCH   = 102
BSTAR          = 0
MEAN_MOTION_DOT = -.71E-6
MEAN_MOTION_DDOT = 0

CCSDS_OMM_VERS = 2.0
CREATION_DATE  = 
ORIGINATOR     = 

OBJECT_NAME    = SHIYAN-31
OBJECT_ID      = 2025-227A
CENTER_NAME    = EARTH
REF_FRAME      = TEME
TIME_SYSTEM    = UTC
MEAN_ELEMENT_THEORY = SGP/SGP4

EPOCH          = 2025-10-27T11:32:39.242400
MEAN_MOTION    = 15.20231357
ECCENTRICITY   = .0011363
INCLINATION    = 80.0035
RA_OF_ASC_NODE = 83.3186
ARG_OF_PERICENTER = 221.5510
MEAN_ANOMALY   = 138.4854

EPHEMERIS_TYPE = 0
CLASSIFICATION_TYPE = U
NORAD_CAT_ID   = 65945
ELEMENT_SET_NO = 999
REV_AT_EPOCH   = 214
BSTAR          = .44737E-3
MEAN_MOTION_DOT = .9737E-4
MEAN_MOTION_DDOT = 0

CCSDS_OMM_VERS = 2.0
CREATION_DATE  = 
ORIGINATOR     = 

OBJECT_NAME    = CZ-2D R/B
OBJECT_ID      = 2025-227B
CENTER_NAME    = EARTH
REF_FRAME      = TEME
TIME_SYSTEM    = UTC
MEAN_ELEMENT_THEORY = SGP/SGP4

EPOCH          = 2025-10-27T11:34:30.470304
MEAN_MOTION    = 15.27295712
ECCENTRICITY   = .0021475
INCLINATION    = 80.1543
RA_OF_ASC_NODE = 83.5805
ARG_OF_PERICENTER = 349.0807
MEAN_ANOMALY   = 10.9954

EPHEMERIS_TYPE = 0
CLASSIFICATION_TYPE = U
NORAD_CAT_ID   = 65946
ELEMENT_SET_NO = 999
REV_AT_EPOCH   = 215
BSTAR          = .42798E-3
MEAN_MOTION_DOT = .11544E-3
MEAN_MOTION_DDOT = 0

CCSDS_OMM_VERS = 2.0
CREATION_DATE  = 
ORIGINATOR     = 

OBJECT_NAME    = KUIPER-00101
OBJECT_ID      = 2025-228A
CENTER_NAME    = EARTH
REF_FRAME      = TEME
TIME_SYSTEM    = UTC
MEAN_ELEMENT_THEORY = SGP/SGP4

EPOCH          = 2025-10-27T08:44:36.237120
MEAN_MOTION    = 15.34587086
ECCENTRICITY   = .0005843
INCLINATION    = 51.8799
RA_OF_ASC_NODE = 243.9741
ARG_OF_PERICENTER = 182.5219
MEAN_ANOMALY   = 177.5738

EPHEMERIS_TYPE = 0
CLASSIFICATION_TYPE = U
NORAD_CAT_ID   = 65947
ELEMENT_SET_NO = 999
REV_AT_EPOCH   = 329
BSTAR          = .52856E-3
MEAN_MOTION_DOT = .17652E-3
MEAN_MOTION_DDOT = 0

CCSDS_OMM_VERS = 2.0
CREATION_DATE  = 
ORIGINATOR     = 

OBJECT_NAME    = KUIPER-00113
OBJECT_ID      = 2025-228B
CENTER_NAME    = EARTH
REF_FRAME      = TEME
TIME_SYSTEM    = UTC
MEAN_ELEMENT_THEORY = SGP/SGP4

EPOCH          = 2025-10-27T11:48:55.628928
MEAN_MOTION    = 15.34846143
ECCENTRICITY   = .0006249
INCLINATION    = 51.8802
RA_OF_ASC_NODE = 243.3358
ARG_OF_PERICENTER = 179.5221
MEAN_ANOMALY   = 180.5772

EPHEMERIS_TYPE = 0
CLASSIFICATION_TYPE = U
NORAD_CAT_ID   = 65948
ELEMENT_SET_NO = 999
REV_AT_EPOCH   = 331
BSTAR          = .67131E-3
MEAN_MOTION_DOT = .22728E-3
MEAN_MOTION_DDOT = 0

